[Satellite]
VERSION=1.1
NAME=DIRECTV 10
NICKNAME=DIRECTV 10
TLE1=1 31862U 07032A   15053.36107656 -.00000128  00000-0  00000+0 0  9991
TLE2=2 31862   0.0278 287.7966 0000313  41.1178 210.1687  1.00271754 27969
